STARLINK-37888          
1 69535U 26133AD  26189.91668981 -.01413063  00000+0 -43762-1 0  9999
2 69535  53.1597 213.9135 0001070  44.7327 319.1108 15.36001099  5360
STARLINK-37889          
1 69536U 26133AE  26189.46339998  .00062025  00000+0  11092-2 0  9990
2 69536  53.1602 216.8181 0002215  61.2703 298.8528 15.49441411  5386
ZHUQUE-2E R/B           
1 69537U 26128C   26189.92739727  .00047045  00000+0  42222-3 0  9995
2 69537  54.5271 201.0602 0066416  44.0872 316.5430 15.64969702  4628
2026-134A               
1 69538U 26134A   26189.80137264  .00003846  00000+0  24398-3 0  9993
2 69538  97.7005 259.9899 0015556 192.5685 167.5158 15.09423719  3579
2026-134B               
1 69539U 26134B   26189.73263609  .00003736  00000+0  23611-3 0  9994
2 69539  97.6981 259.9194 0015631 195.1978 164.8783 15.09580155  3558
2026-134C               
1 69540U 26134C   26189.73214278  .00003717  00000+0  23477-3 0  9993
2 69540  97.6987 259.9216 0015049 196.2517 163.8231 15.09612343  3557
2026-134D               
1 69541U 26134D   26189.73124725  .00003665  00000+0  23106-3 0  9992
2 69541  97.7026 259.9343 0016106 196.0280 164.0442 15.09670232  3552
2026-134E               
1 69542U 26134E   26189.73090469  .00003718  00000+0  23424-3 0  9992
2 69542  97.7045 259.9404 0015827 196.7491 163.3217 15.09691942  3555
2026-134F               
1 69543U 26134F   26189.73018958  .00003632  00000+0  22868-3 0  9992
2 69543  97.6997 259.9274 0015098 198.3371 161.7316 15.09737508  3552
2026-134G               
1 69544U 26134G   26189.99397848  .00003580  00000+0  22491-3 0  9993
2 69544  97.7042 260.2085 0015578 198.1662 161.9012 15.09824211  3591
2026-134H               
1 69545U 26134H   26189.92666563  .00003579  00000+0  22447-3 0  9999
2 69545  97.7027 260.1391 0015416 199.7422 160.3212 15.09890455  3572
STARLINK-37880          
1 69546U 26135A   26189.91668981 -.02327841  00000+0 -29059-1 0  9995
2 69546  97.2846 218.1275 0001785  72.2309 112.5032 15.63110736  4807
STARLINK-37881          
1 69547U 26135B   26189.91668981 -.02580770  00000+0 -22077-1 0  9991
2 69547  97.2849 218.1626 0001458 106.9459 167.8100 15.72681500  4800
STARLINK-37265          
1 69548U 26135C   26189.92723810  .00367237  00000+0  18169-2 0  9991
2 69548  97.2841 218.1839 0001034 179.5604 180.5665 15.81073231  3697
STARLINK-37871          
1 69549U 26135D   26188.02730622  .00114098  00000+0  58733-3 0  9998
2 69549  97.2844 216.1764 0001101 119.9823 240.1554 15.80865436  3394
STARLINK-37865          
1 69550U 26135E   26189.91668981 -.02367588  00000+0 -20687-1 0  9990
2 69550  97.2847 218.1686 0001361  88.5769 201.1720 15.72472394  4809
STARLINK-37862          
1 69551U 26135F   26189.22579409  .00011858  00000+0  62652-4 0  9994
2 69551  97.2823 217.4548 0000942  20.2212 339.9093 15.80784297  3587
STARLINK-37861          
1 69552U 26135G   26189.91668981 -.00737542  00000+0 -58634-2 0  9995
2 69552  97.2843 218.1801 0001172  64.1868 253.1047 15.73222694  4802
STARLINK-37859          
1 69553U 26135H   26189.91917287 -.00399288  00000+0 -22874-2 0  9990
2 69553  97.2806 218.1991 0010764 197.6441 162.4455 15.79647307  3697
STARLINK-37860          
1 69554U 26135J   26189.22318109  .00202559  00000+0  10498-2 0  9994
2 69554  97.2848 217.4581 0012132 312.9181  47.1068 15.80383812  3582
STARLINK-37858          
1 69555U 26135K   26189.91668981 -.02501624  00000+0 -18107-1 0  9990
2 69555  97.2842 218.1971 0001457  76.3707 276.3071 15.76995769  4802
STARLINK-37927          
1 69556U 26135L   26188.01789086  .00152409  00000+0  78081-3 0  9999
2 69556  97.2851 216.1903 0001084  58.4844 301.6530 15.80866086  3394
STARLINK-37929          
1 69557U 26135M   26189.91668981 -.02467798  00000+0 -25759-1 0  9996
2 69557  97.2843 218.1785 0001506 107.0581 200.4978 15.67773461  4802
STARLINK-37954          
1 69558U 26135N   26189.91668981 -.02393868  00000+0 -24944-1 0  9998
2 69558  97.2845 218.1812 0001471 108.6807 204.3444 15.67710642  4808
STARLINK-37958          
1 69559U 26135P   26188.45641803  .00383711  00000+0  18840-2 0  9992
2 69559  97.2854 216.6654 0000816 105.5963 254.5396 15.81197842  3468
STARLINK-37950          
1 69560U 26135Q   26189.91240228  .00137452  00000+0  70568-3 0  9997
2 69560  97.2846 218.2056 0001287 106.8775 253.2635 15.80859745  3696
STARLINK-37952          
1 69561U 26135R   26189.91668981 -.02365826  00000+0 -20921-1 0  9996
2 69561  97.2839 218.2021 0001432  64.0769 303.6394 15.72188381  4809
STARLINK-37935          
1 69562U 26135S   26189.91668981 -.02412490  00000+0 -26033-1 0  9997
2 69562  97.2841 218.1912 0001417 102.3106 230.6287 15.66880020  4807
STARLINK-37936          
1 69563U 26135T   26189.91668981 -.02446948  00000+0 -24569-1 0  9995
2 69563  97.2841 218.2102 0001440  67.0226 320.3572 15.68688250  4803
STARLINK-37932          
1 69564U 26135U   26189.58620840  .00282538  00000+0  14235-2 0  9990
2 69564  97.2839 217.8870 0001584  53.5074 306.6340 15.80893645  3649
