OBJECT_NAME,OBJECT_ID,EPOCH,MEAN_MOTION,ECCENTRICITY,INCLINATION,RA_OF_ASC_NODE,ARG_OF_PERICENTER,MEAN_ANOMALY,EPHEMERIS_TYPE,CLASSIFICATION_TYPE,NORAD_CAT_ID,ELEMENT_SET_NO,REV_AT_EPOCH,BSTAR,MEAN_MOTION_DOT,MEAN_MOTION_DDOT
STARLINK-37888,2026-133AD,2026-07-08T22:00:01.999584,15.36001099,.00010707,53.1597,213.9135,44.7327,319.1108,0,U,69535,999,536,-.43762385E-1,-.1413063E-1,0
STARLINK-37889,2026-133AE,2026-07-08T11:07:17.758272,15.49441411,.00022157,53.1602,216.8181,61.2703,298.8528,0,U,69536,999,538,.11092203E-2,.62025E-3,0
ZHUQUE-2E R/B,2026-128C,2026-07-08T22:15:27.124128,15.64969702,.00664165,54.5271,201.0602,44.0872,316.5430,0,U,69537,999,462,.42221527E-3,.47045E-3,0
2026-134A,2026-134A,2026-07-08T19:13:58.596096,15.09423719,.0015556,97.7005,259.9899,192.5685,167.5158,0,U,69538,999,357,.24397904E-3,.3846E-4,0
2026-134B,2026-134B,2026-07-08T17:34:59.758176,15.09580155,.00156312,97.6981,259.9194,195.1978,164.8783,0,U,69539,999,355,.23610594E-3,.3736E-4,0
2026-134C,2026-134C,2026-07-08T17:34:17.136192,15.09612343,.00150494,97.6987,259.9216,196.2517,163.8231,0,U,69540,999,355,.2347717E-3,.3717E-4,0
2026-134D,2026-134D,2026-07-08T17:32:59.762400,15.09670232,.00161068,97.7026,259.9343,196.0280,164.0442,0,U,69541,999,355,.23105921E-3,.3665E-4,0
2026-134E,2026-134E,2026-07-08T17:32:30.165216,15.09691942,.00158273,97.7045,259.9404,196.7491,163.3217,0,U,69542,999,355,.23424212E-3,.3718E-4,0
2026-134F,2026-134F,2026-07-08T17:31:28.379712,15.09737508,.00150985,97.6997,259.9274,198.3371,161.7316,0,U,69543,999,355,.22868163E-3,.3632E-4,0
2026-134G,2026-134G,2026-07-08T23:51:19.740672,15.09824211,.00155786,97.7042,260.2085,198.1662,161.9012,0,U,69544,999,359,.22490538E-3,.358E-4,0
2026-134H,2026-134H,2026-07-08T22:14:23.910432,15.09890455,.0015416,97.7027,260.1391,199.7422,160.3212,0,U,69545,999,357,.2244696E-3,.3579E-4,0
STARLINK-37880,2026-135A,2026-07-08T22:00:01.999584,15.63110736,.00017856,97.2846,218.1275,72.2309,112.5032,0,U,69546,999,480,-.29059207E-1,-.2327841E-1,0
STARLINK-37881,2026-135B,2026-07-08T22:00:01.999584,15.72681500,.00014583,97.2849,218.1626,106.9459,167.8100,0,U,69547,999,480,-.22077293E-1,-.258077E-1,0
STARLINK-37265,2026-135C,2026-07-08T22:15:13.371840,15.81073231,.00010341,97.2841,218.1839,179.5604,180.5665,0,U,69548,999,369,.18169252E-2,.367237E-2,0
STARLINK-37871,2026-135D,2026-07-07T00:39:19.257408,15.80865436,.00011017,97.2844,216.1764,119.9823,240.1554,0,U,69549,999,339,.58732992E-3,.114098E-2,0
STARLINK-37865,2026-135E,2026-07-08T22:00:01.999584,15.72472394,.00013619,97.2847,218.1686,88.5769,201.1720,0,U,69550,999,480,-.20687184E-1,-.2367588E-1,0
STARLINK-37862,2026-135F,2026-07-08T05:25:08.609376,15.80784297,.00009425,97.2823,217.4548,20.2212,339.9093,0,U,69551,999,358,.62651599E-4,.11858E-3,0
STARLINK-37861,2026-135G,2026-07-08T22:00:01.999584,15.73222694,.00011725,97.2843,218.1801,64.1868,253.1047,0,U,69552,999,480,-.5863405E-2,-.737542E-2,0
STARLINK-37859,2026-135H,2026-07-08T22:03:36.535968,15.79647307,.00107643,97.2806,218.1991,197.6441,162.4455,0,U,69553,999,369,-.22873589E-2,-.399288E-2,0
STARLINK-37860,2026-135J,2026-07-08T05:21:22.846176,15.80383812,.00121329,97.2848,217.4581,312.9181,47.1068,0,U,69554,999,358,.10497581E-2,.202559E-2,0
STARLINK-37858,2026-135K,2026-07-08T22:00:01.999584,15.76995769,.00014575,97.2842,218.1971,76.3707,276.3071,0,U,69555,999,480,-.18106793E-1,-.2501624E-1,0
STARLINK-37927,2026-135L,2026-07-07T00:25:45.770304,15.80866086,.00010848,97.2851,216.1903,58.4844,301.6530,0,U,69556,999,339,.780815E-3,.152409E-2,0
STARLINK-37929,2026-135M,2026-07-08T22:00:01.999584,15.67773461,.00015066,97.2843,218.1785,107.0581,200.4978,0,U,69557,999,480,-.25758508E-1,-.2467798E-1,0
STARLINK-37954,2026-135N,2026-07-08T22:00:01.999584,15.67710642,.00014717,97.2845,218.1812,108.6807,204.3444,0,U,69558,999,480,-.24944318E-1,-.2393868E-1,0
STARLINK-37958,2026-135P,2026-07-07T10:57:14.517792,15.81197842,.00008161,97.2854,216.6654,105.5963,254.5396,0,U,69559,999,346,.18839808E-2,.383711E-2,0
STARLINK-37950,2026-135Q,2026-07-08T21:53:51.556992,15.80859745,.00012875,97.2846,218.2056,106.8775,253.2635,0,U,69560,999,369,.70567661E-3,.137452E-2,0
STARLINK-37952,2026-135R,2026-07-08T22:00:01.999584,15.72188381,.00014322,97.2839,218.2021,64.0769,303.6394,0,U,69561,999,480,-.20920875E-1,-.2365826E-1,0
STARLINK-37935,2026-135S,2026-07-08T22:00:01.999584,15.66880020,.0001417,97.2841,218.1912,102.3106,230.6287,0,U,69562,999,480,-.26033414E-1,-.241249E-1,0
STARLINK-37936,2026-135T,2026-07-08T22:00:01.999584,15.68688250,.00014405,97.2841,218.2102,67.0226,320.3572,0,U,69563,999,480,-.2456855E-1,-.2446948E-1,0
STARLINK-37932,2026-135U,2026-07-08T14:04:08.405760,15.80893645,.00015848,97.2839,217.8870,53.5074,306.6340,0,U,69564,999,364,.14234719E-2,.282538E-2,0
